[
  {
    "COMMENT": "GENERATED VIA SPACETRACK.ORG API",
    "ORIGINATOR": "18 SPCS",
    "NORAD_CAT_ID": "48621",
    "OBJECT_NAME": "HAIYANG 2D",
    "OBJECT_TYPE": "PAYLOAD",
    "CLASSIFICATION_TYPE": "U",
    "INTLDES": "21043A",
    "EPOCH": "2023-07-18 11:05:57",
    "EPOCH_MICROSECONDS": "314688",
    "MEAN_MOTION": "13.83371241",
    "ECCENTRICITY": "0.0007796",
    "INCLINATION": "65.9979",
    "RA_OF_ASC_NODE": "75.4971",
    "ARG_OF_PERICENTER": "262.1153",
    "MEAN_ANOMALY": "97.9031",
    "EPHEMERIS_TYPE": "0",
    "ELEMENT_SET_NO": "999",
    "REV_AT_EPOCH": "10931",
    "BSTAR": "0.00007333",
    "MEAN_MOTION_DOT": "-0.00000001",
    "MEAN_MOTION_DDOT": "0",
    "FILE": "3961214",
    "TLE_LINE0": "0 HAIYANG 2D",
    "TLE_LINE1": "1 48621U 21043A   23199.46246892 -.00000001  00000-0  73330-4 0  9998",
    "TLE_LINE2": "2 48621  65.9979  75.4971 0007796 262.1153  97.9031 13.83371241109316",
    "OBJECT_ID": "2021-043A",
    "OBJECT_NUMBER": "48621",
    "SEMIMAJOR_AXIS": "7330.091",
    "PERIOD": "104.094",
    "APOGEE": "957.670",
    "PERIGEE": "946.241",
    "DECAYED": "0"
  },
  {
    "COMMENT": "GENERATED VIA SPACETRACK.ORG API",
    "ORIGINATOR": "18 SPCS",
    "NORAD_CAT_ID": "48621",
    "OBJECT_NAME": "HAIYANG 2D",
    "OBJECT_TYPE": "PAYLOAD",
    "CLASSIFICATION_TYPE": "U",
    "INTLDES": "21043A",
    "EPOCH": "2023-07-18 18:02:22",
    "EPOCH_MICROSECONDS": "432992",
    "MEAN_MOTION": "13.8337129",
    "ECCENTRICITY": "0.0007793",
    "INCLINATION": "65.9978",
    "RA_OF_ASC_NODE": "74.7771",
    "ARG_OF_PERICENTER": "262.0892",
    "MEAN_ANOMALY": "97.9292",
    "EPHEMERIS_TYPE": "0",
    "ELEMENT_SET_NO": "999",
    "REV_AT_EPOCH": "10935",
    "BSTAR": "0.000070374",
    "MEAN_MOTION_DOT": "-0.00000004",
    "MEAN_MOTION_DDOT": "0",
    "FILE": "3961451",
    "TLE_LINE0": "0 HAIYANG 2D",
    "TLE_LINE1": "1 48621U 21043A   23199.75164853 -.00000004  00000-0  70374-4 0  9994",
    "TLE_LINE2": "2 48621  65.9978  74.7771 0007793 262.0892  97.9292 13.83371290109358",
    "OBJECT_ID": "2021-043A",
    "OBJECT_NUMBER": "48621",
    "SEMIMAJOR_AXIS": "7330.090",
    "PERIOD": "104.094",
    "APOGEE": "957.668",
    "PERIGEE": "946.243",
    "DECAYED": "0"
  },
  {
    "COMMENT": "GENERATED VIA SPACETRACK.ORG API",
    "ORIGINATOR": "18 SPCS",
    "NORAD_CAT_ID": "48621",
    "OBJECT_NAME": "HAIYANG 2D",
    "OBJECT_TYPE": "PAYLOAD",
    "CLASSIFICATION_TYPE": "U",
    "INTLDES": "21043A",
    "EPOCH": "2023-07-19 02:42:53",
    "EPOCH_MICROSECONDS": "834976",
    "MEAN_MOTION": "13.83371353",
    "ECCENTRICITY": "0.0007787",
    "INCLINATION": "65.9978",
    "RA_OF_ASC_NODE": "73.8772",
    "ARG_OF_PERICENTER": "262.1352",
    "MEAN_ANOMALY": "97.8833",
    "EPHEMERIS_TYPE": "0",
    "ELEMENT_SET_NO": "999",
    "REV_AT_EPOCH": "10940",
    "BSTAR": "0.000079009",
    "MEAN_MOTION_DOT": "0.00000006",
    "MEAN_MOTION_DDOT": "0",
    "FILE": "3961795",
    "TLE_LINE0": "0 HAIYANG 2D",
    "TLE_LINE1": "1 48621U 21043A   23200.11312309  .00000006  00000-0  79009-4 0  9993",
    "TLE_LINE2": "2 48621  65.9978  73.8772 0007787 262.1352  97.8833 13.83371353109400",
    "OBJECT_ID": "2021-043A",
    "OBJECT_NUMBER": "48621",
    "SEMIMAJOR_AXIS": "7330.090",
    "PERIOD": "104.094",
    "APOGEE": "957.663",
    "PERIGEE": "946.247",
    "DECAYED": "0"
  },
  {
    "COMMENT": "GENERATED VIA SPACETRACK.ORG API",
    "ORIGINATOR": "18 SPCS",
    "NORAD_CAT_ID": "48621",
    "OBJECT_NAME": "HAIYANG 2D",
    "OBJECT_TYPE": "PAYLOAD",
    "CLASSIFICATION_TYPE": "U",
    "INTLDES": "21043A",
    "EPOCH": "2023-07-19 09:39:18",
    "EPOCH_MICROSECONDS": "955008",
    "MEAN_MOTION": "13.83371399",
    "ECCENTRICITY": "0.0007783",
    "INCLINATION": "65.9978",
    "RA_OF_ASC_NODE": "73.1572",
    "ARG_OF_PERICENTER": "262.1765",
    "MEAN_ANOMALY": "97.842",
    "EPHEMERIS_TYPE": "0",
    "ELEMENT_SET_NO": "999",
    "REV_AT_EPOCH": "10944",
    "BSTAR": "0.000076762",
    "MEAN_MOTION_DOT": "0.00000003",
    "MEAN_MOTION_DDOT": "0",
    "FILE": "3962079",
    "TLE_LINE0": "0 HAIYANG 2D",
    "TLE_LINE1": "1 48621U 21043A   23200.40230272  .00000003  00000-0  76762-4 0  9993",
    "TLE_LINE2": "2 48621  65.9978  73.1572 0007783 262.1765  97.8420 13.83371399109441",
    "OBJECT_ID": "2021-043A",
    "OBJECT_NUMBER": "48621",
    "SEMIMAJOR_AXIS": "7330.090",
    "PERIOD": "104.094",
    "APOGEE": "957.660",
    "PERIGEE": "946.250",
    "DECAYED": "0"
  },
  {
    "COMMENT": "GENERATED VIA SPACETRACK.ORG API",
    "ORIGINATOR": "18 SPCS",
    "NORAD_CAT_ID": "48621",
    "OBJECT_NAME": "HAIYANG 2D",
    "OBJECT_TYPE": "PAYLOAD",
    "CLASSIFICATION_TYPE": "U",
    "INTLDES": "21043A",
    "EPOCH": "2023-07-19 20:03:56",
    "EPOCH_MICROSECONDS": "632896",
    "MEAN_MOTION": "13.83371442",
    "ECCENTRICITY": "0.0007777",
    "INCLINATION": "65.9978",
    "RA_OF_ASC_NODE": "72.0773",
    "ARG_OF_PERICENTER": "262.1401",
    "MEAN_ANOMALY": "97.8784",
    "EPHEMERIS_TYPE": "0",
    "ELEMENT_SET_NO": "999",
    "REV_AT_EPOCH": "10950",
    "BSTAR": "0.000070685",
    "MEAN_MOTION_DOT": "-0.00000003",
    "MEAN_MOTION_DDOT": "0",
    "FILE": "3962365",
    "TLE_LINE0": "0 HAIYANG 2D",
    "TLE_LINE1": "1 48621U 21043A   23200.83607214 -.00000003  00000-0  70685-4 0  9993",
    "TLE_LINE2": "2 48621  65.9978  72.0773 0007777 262.1401  97.8784 13.83371442109501",
    "OBJECT_ID": "2021-043A",
    "OBJECT_NUMBER": "48621",
    "SEMIMAJOR_AXIS": "7330.090",
    "PERIOD": "104.094",
    "APOGEE": "957.656",
    "PERIGEE": "946.254",
    "DECAYED": "0"
  },
  {
    "COMMENT": "GENERATED VIA SPACETRACK.ORG API",
    "ORIGINATOR": "18 SPCS",
    "NORAD_CAT_ID": "48621",
    "OBJECT_NAME": "HAIYANG 2D",
    "OBJECT_TYPE": "PAYLOAD",
    "CLASSIFICATION_TYPE": "U",
    "INTLDES": "21043A",
    "EPOCH": "2023-07-20 18:37:18",
    "EPOCH_MICROSECONDS": "260256",
    "MEAN_MOTION": "13.83371604",
    "ECCENTRICITY": "0.0007757",
    "INCLINATION": "65.9978",
    "RA_OF_ASC_NODE": "69.7374",
    "ARG_OF_PERICENTER": "262.1262",
    "MEAN_ANOMALY": "97.8926",
    "EPHEMERIS_TYPE": "0",
    "ELEMENT_SET_NO": "999",
    "REV_AT_EPOCH": "10963",
    "BSTAR": "0.000071945",
    "MEAN_MOTION_DOT": "-0.00000002",
    "MEAN_MOTION_DDOT": "0",
    "FILE": "3962845",
    "TLE_LINE0": "0 HAIYANG 2D",
    "TLE_LINE1": "1 48621U 21043A   23201.77590579 -.00000002  00000-0  71945-4 0  9991",
    "TLE_LINE2": "2 48621  65.9978  69.7374 0007757 262.1262  97.8926 13.83371604109636",
    "OBJECT_ID": "2021-043A",
    "OBJECT_NUMBER": "48621",
    "SEMIMAJOR_AXIS": "7330.089",
    "PERIOD": "104.094",
    "APOGEE": "957.640",
    "PERIGEE": "946.268",
    "DECAYED": "0"
  },
  {
    "COMMENT": "GENERATED VIA SPACETRACK.ORG API",
    "ORIGINATOR": "18 SPCS",
    "NORAD_CAT_ID": "48621",
    "OBJECT_NAME": "HAIYANG 2D",
    "OBJECT_TYPE": "PAYLOAD",
    "CLASSIFICATION_TYPE": "U",
    "INTLDES": "21043A",
    "EPOCH": "2023-07-21 01:33:43",
    "EPOCH_MICROSECONDS": "376832",
    "MEAN_MOTION": "13.83371645",
    "ECCENTRICITY": "0.0007753",
    "INCLINATION": "65.9978",
    "RA_OF_ASC_NODE": "69.0174",
    "ARG_OF_PERICENTER": "262.1953",
    "MEAN_ANOMALY": "97.8235",
    "EPHEMERIS_TYPE": "0",
    "ELEMENT_SET_NO": "999",
    "REV_AT_EPOCH": "10967",
    "BSTAR": "0.000072666",
    "MEAN_MOTION_DOT": "-0.00000001",
    "MEAN_MOTION_DDOT": "0",
    "FILE": "3963207",
    "TLE_LINE0": "0 HAIYANG 2D",
    "TLE_LINE1": "1 48621U 21043A   23202.06508538 -.00000001  00000-0  72666-4 0  9998",
    "TLE_LINE2": "2 48621  65.9978  69.0174 0007753 262.1953  97.8235 13.83371645109672",
    "OBJECT_ID": "2021-043A",
    "OBJECT_NUMBER": "48621",
    "SEMIMAJOR_AXIS": "7330.089",
    "PERIOD": "104.094",
    "APOGEE": "957.637",
    "PERIGEE": "946.271",
    "DECAYED": "0"
  },
  {
    "COMMENT": "GENERATED VIA SPACETRACK.ORG API",
    "ORIGINATOR": "18 SPCS",
    "NORAD_CAT_ID": "48621",
    "OBJECT_NAME": "HAIYANG 2D",
    "OBJECT_TYPE": "PAYLOAD",
    "CLASSIFICATION_TYPE": "U",
    "INTLDES": "21043A",
    "EPOCH": "2023-07-21 10:14:14",
    "EPOCH_MICROSECONDS": "768448",
    "MEAN_MOTION": "13.83371674",
    "ECCENTRICITY": "0.0007746",
    "INCLINATION": "65.9978",
    "RA_OF_ASC_NODE": "68.1175",
    "ARG_OF_PERICENTER": "262.1911",
    "MEAN_ANOMALY": "97.8278",
    "EPHEMERIS_TYPE": "0",
    "ELEMENT_SET_NO": "999",
    "REV_AT_EPOCH": "10972",
    "BSTAR": "0.00006305",
    "MEAN_MOTION_DOT": "-0.00000012",
    "MEAN_MOTION_DDOT": "0",
    "FILE": "3963467",
    "TLE_LINE0": "0 HAIYANG 2D",
    "TLE_LINE1": "1 48621U 21043A   23202.42655982 -.00000012  00000-0  63050-4 0  9993",
    "TLE_LINE2": "2 48621  65.9978  68.1175 0007746 262.1911  97.8278 13.83371674109724",
    "OBJECT_ID": "2021-043A",
    "OBJECT_NUMBER": "48621",
    "SEMIMAJOR_AXIS": "7330.089",
    "PERIOD": "104.094",
    "APOGEE": "957.632",
    "PERIGEE": "946.276",
    "DECAYED": "0"
  }
]